FENGYUN 1C DEB          
1 29848U 99025ES  17345.77358336  .00000476  00000-0  27721-3 0  9997
2 29848  98.2732  37.8615 0136953  64.3258  56.3480 14.07982535558939
